{
  "type": "FeatureCollection",
  "name": "USGS_3DHP_Kansas_City_Hydrography_Fixture",
  "features": [
    {
      "type": "Feature",
      "properties": {
        "feature_id": "3DHP_KC_001",
        "gnis_name": "Loose Creek Fixture",
        "feature_type": "StreamRiver"
      },
      "geometry": {
        "type": "LineString",
        "coordinates": [
          [
            -94.592,
            39.032
          ],
          [
            -94.59,
            39.035
          ],
          [
            -94.588,
            39.039
          ]
        ]
      }
    }
  ]
}